{
  "type": "FeatureCollection",
  "features": [
    {
      "type": "Feature",
      "properties": { "name": "Stockholms skärgård och Roslagen" },
      "geometry": { "type": "Polygon", "coordinates": [[
        [18.45, 60.60], [18.45, 60.45], [18.42, 60.30], [18.55, 60.18], [18.72, 60.08],
        [18.74, 59.95], [18.76, 59.80], [18.72, 59.72], [18.55, 59.60], [18.45, 59.52],
        [18.36, 59.44], [18.33, 59.36], [18.33, 59.27], [18.28, 59.20], [18.23, 59.13],
        [18.12, 59.03], [18.05, 58.93], [17.90, 58.86], [17.70, 58.80], [17.70, 58.65],
        [19.60, 58.65], [19.60, 60.00], [18.90, 60.60], [18.45, 60.60]
      ]] }
    },
    {
      "type": "Feature",
      "properties": { "name": "Mörkö och Himmerfjärden" },
      "geometry": { "type": "Polygon", "coordinates": [[
        [17.63, 59.05], [17.78, 59.05], [17.78, 58.95], [17.63, 58.95], [17.63, 59.05]
      ]] }
    },
    {
      "type": "Feature",
      "properties": { "name": "Trosa och Nyköpings skärgård" },
      "geometry": { "type": "Polygon", "coordinates": [[
        [17.58, 58.95], [17.80, 58.95], [17.80, 58.60], [16.95, 58.60], [16.95, 58.68],
        [17.25, 58.72], [17.45, 58.82], [17.58, 58.86], [17.58, 58.95]
      ]] }
    },
    {
      "type": "Feature",
      "properties": { "name": "Östgöta- och Tjustskärgården" },
      "geometry": { "type": "Polygon", "coordinates": [[
        [17.05, 58.62], [16.88, 58.52], [16.78, 58.42], [16.68, 58.30], [16.72, 58.20],
        [16.68, 58.10], [16.60, 58.00], [16.62, 57.90], [16.60, 57.80], [16.62, 57.70],
        [16.58, 57.55], [16.57, 57.35], [16.50, 57.25], [16.85, 57.25], [16.95, 57.45],
        [17.20, 57.60], [17.20, 58.62], [17.05, 58.62]
      ]] }
    },
    {
      "type": "Feature",
      "properties": { "name": "Blekinge skärgård" },
      "geometry": { "type": "Polygon", "coordinates": [[
        [14.85, 56.14], [15.20, 56.14], [15.45, 56.15], [15.55, 56.14], [15.62, 56.155],
        [15.72, 56.16], [15.90, 56.14], [16.05, 56.15], [16.05, 55.95], [14.85, 55.95],
        [14.85, 56.14]
      ]] }
    },
    {
      "type": "Feature",
      "properties": { "name": "Bohusläns och Göteborgs skärgård" },
      "geometry": { "type": "Polygon", "coordinates": [[
        [11.30, 59.10], [11.25, 59.00], [11.23, 58.92], [11.24, 58.82], [11.28, 58.70],
        [11.30, 58.60], [11.34, 58.50], [11.40, 58.42], [11.42, 58.33], [11.44, 58.27],
        [11.52, 58.255], [11.56, 58.235], [11.62, 58.25], [11.75, 58.27], [11.85, 58.20],
        [11.85, 58.10], [11.78, 58.05], [11.74, 58.00], [11.70, 57.93], [11.64, 57.85],
        [11.70, 57.76], [11.72, 57.70], [11.84, 57.66], [11.86, 57.58], [11.84, 57.50],
        [11.70, 57.45], [10.90, 57.45], [10.90, 59.10], [11.30, 59.10]
      ]] }
    }
  ]
}
